GPS BIIF-12 (PRN 32)    
1 41328U 16007A   26087.59419842  .00000043  00000+0  00000+0 0  9992
2 41328  55.4724  92.6531 0095885 246.6020 112.4215  2.00555500 74221
